CCSDS_OMM_VERS = 2.0
CREATION_DATE  = 
ORIGINATOR     = 

OBJECT_NAME    = STARLINK-36517
OBJECT_ID      = 2026-008K
CENTER_NAME    = EARTH
REF_FRAME      = TEME
TIME_SYSTEM    = UTC
MEAN_ELEMENT_THEORY = SGP/SGP4

EPOCH          = 2026-02-08T04:00:01.999584
MEAN_MOTION    = 15.50592564
ECCENTRICITY   = .0001098
INCLINATION    = 43.0000
RA_OF_ASC_NODE = 13.6253
ARG_OF_PERICENTER = 277.1571
MEAN_ANOMALY   = 238.4543

EPHEMERIS_TYPE = 0
CLASSIFICATION_TYPE = U
NORAD_CAT_ID   = 67454
ELEMENT_SET_NO = 999
REV_AT_EPOCH   = 507
BSTAR          = -.13276E-2
MEAN_MOTION_DOT = -.77497E-3
MEAN_MOTION_DDOT = 0

CCSDS_OMM_VERS = 2.0
CREATION_DATE  = 
ORIGINATOR     = 

OBJECT_NAME    = STARLINK-36516
OBJECT_ID      = 2026-008L
CENTER_NAME    = EARTH
REF_FRAME      = TEME
TIME_SYSTEM    = UTC
MEAN_ELEMENT_THEORY = SGP/SGP4

EPOCH          = 2026-02-08T04:00:01.999584
MEAN_MOTION    = 15.50536365
ECCENTRICITY   = .0001374
INCLINATION    = 43.0000
RA_OF_ASC_NODE = 13.4878
ARG_OF_PERICENTER = 274.5214
MEAN_ANOMALY   = 297.1074

EPHEMERIS_TYPE = 0
CLASSIFICATION_TYPE = U
NORAD_CAT_ID   = 67455
ELEMENT_SET_NO = 999
REV_AT_EPOCH   = 505
BSTAR          = -.54374E-3
MEAN_MOTION_DOT = -.32061E-3
MEAN_MOTION_DDOT = 0

CCSDS_OMM_VERS = 2.0
CREATION_DATE  = 
ORIGINATOR     = 

OBJECT_NAME    = STARLINK-36493
OBJECT_ID      = 2026-008M
CENTER_NAME    = EARTH
REF_FRAME      = TEME
TIME_SYSTEM    = UTC
MEAN_ELEMENT_THEORY = SGP/SGP4

EPOCH          = 2026-02-08T04:00:01.999584
MEAN_MOTION    = 15.50594034
ECCENTRICITY   = .0001189
INCLINATION    = 43.0002
RA_OF_ASC_NODE = 13.4562
ARG_OF_PERICENTER = 267.8729
MEAN_ANOMALY   = 316.5931

EPHEMERIS_TYPE = 0
CLASSIFICATION_TYPE = U
NORAD_CAT_ID   = 67456
ELEMENT_SET_NO = 999
REV_AT_EPOCH   = 505
BSTAR          = -.13646E-2
MEAN_MOTION_DOT = -.79627E-3
MEAN_MOTION_DDOT = 0

CCSDS_OMM_VERS = 2.0
CREATION_DATE  = 
ORIGINATOR     = 

OBJECT_NAME    = STARLINK-36529
OBJECT_ID      = 2026-008N
CENTER_NAME    = EARTH
REF_FRAME      = TEME
TIME_SYSTEM    = UTC
MEAN_ELEMENT_THEORY = SGP/SGP4

EPOCH          = 2026-02-08T04:00:01.999584
MEAN_MOTION    = 15.50869333
ECCENTRICITY   = .0000765
INCLINATION    = 43.0000
RA_OF_ASC_NODE = 13.1986
ARG_OF_PERICENTER = 227.1433
MEAN_ANOMALY   = 101.8188

EPHEMERIS_TYPE = 0
CLASSIFICATION_TYPE = U
NORAD_CAT_ID   = 67457
ELEMENT_SET_NO = 999
REV_AT_EPOCH   = 505
BSTAR          = -.90242E-2
MEAN_MOTION_DOT = -.50227E-2
MEAN_MOTION_DDOT = 0

CCSDS_OMM_VERS = 2.0
CREATION_DATE  = 
ORIGINATOR     = 

OBJECT_NAME    = STARLINK-36528
OBJECT_ID      = 2026-008P
CENTER_NAME    = EARTH
REF_FRAME      = TEME
TIME_SYSTEM    = UTC
MEAN_ELEMENT_THEORY = SGP/SGP4

EPOCH          = 2026-02-08T04:00:01.999584
MEAN_MOTION    = 15.57870150
ECCENTRICITY   = .0001257
INCLINATION    = 42.9997
RA_OF_ASC_NODE = 12.9253
ARG_OF_PERICENTER = 276.1512
MEAN_ANOMALY   = 163.7134

EPHEMERIS_TYPE = 0
CLASSIFICATION_TYPE = U
NORAD_CAT_ID   = 67458
ELEMENT_SET_NO = 999
REV_AT_EPOCH   = 507
BSTAR          = -.30643E-1
MEAN_MOTION_DOT = -.2091202E-1
MEAN_MOTION_DDOT = 0

CCSDS_OMM_VERS = 2.0
CREATION_DATE  = 
ORIGINATOR     = 

OBJECT_NAME    = STARLINK-36546
OBJECT_ID      = 2026-008Q
CENTER_NAME    = EARTH
REF_FRAME      = TEME
TIME_SYSTEM    = UTC
MEAN_ELEMENT_THEORY = SGP/SGP4

EPOCH          = 2026-02-08T04:00:01.999584
MEAN_MOTION    = 15.50922677
ECCENTRICITY   = .0000705
INCLINATION    = 43.0002
RA_OF_ASC_NODE = 13.1815
ARG_OF_PERICENTER = 274.9944
MEAN_ANOMALY   = 60.7567

EPHEMERIS_TYPE = 0
CLASSIFICATION_TYPE = U
NORAD_CAT_ID   = 67459
ELEMENT_SET_NO = 999
REV_AT_EPOCH   = 505
BSTAR          = -.10572E-1
MEAN_MOTION_DOT = -.583463E-2
MEAN_MOTION_DDOT = 0

CCSDS_OMM_VERS = 2.0
CREATION_DATE  = 
ORIGINATOR     = 

OBJECT_NAME    = STARLINK-36523
OBJECT_ID      = 2026-008R
CENTER_NAME    = EARTH
REF_FRAME      = TEME
TIME_SYSTEM    = UTC
MEAN_ELEMENT_THEORY = SGP/SGP4

EPOCH          = 2026-02-08T04:00:01.999584
MEAN_MOTION    = 15.51894893
ECCENTRICITY   = .0001341
INCLINATION    = 43.0003
RA_OF_ASC_NODE = 13.1474
ARG_OF_PERICENTER = 265.5971
MEAN_ANOMALY   = 83.7824

EPHEMERIS_TYPE = 0
CLASSIFICATION_TYPE = U
NORAD_CAT_ID   = 67460
ELEMENT_SET_NO = 999
REV_AT_EPOCH   = 507
BSTAR          = -.31772E-1
MEAN_MOTION_DOT = -.1741099E-1
MEAN_MOTION_DDOT = 0

CCSDS_OMM_VERS = 2.0
CREATION_DATE  = 
ORIGINATOR     = 

OBJECT_NAME    = STARLINK-36522
OBJECT_ID      = 2026-008S
CENTER_NAME    = EARTH
REF_FRAME      = TEME
TIME_SYSTEM    = UTC
MEAN_ELEMENT_THEORY = SGP/SGP4

EPOCH          = 2026-02-08T04:00:01.999584
MEAN_MOTION    = 15.50559707
ECCENTRICITY   = .0001437
INCLINATION    = 43.0002
RA_OF_ASC_NODE = 13.4495
ARG_OF_PERICENTER = 271.7927
MEAN_ANOMALY   = 314.9052

EPHEMERIS_TYPE = 0
CLASSIFICATION_TYPE = U
NORAD_CAT_ID   = 67461
ELEMENT_SET_NO = 999
REV_AT_EPOCH   = 505
BSTAR          = -.76573E-3
MEAN_MOTION_DOT = -.44975E-3
MEAN_MOTION_DDOT = 0

CCSDS_OMM_VERS = 2.0
CREATION_DATE  = 
ORIGINATOR     = 

OBJECT_NAME    = STARLINK-36504
OBJECT_ID      = 2026-008T
CENTER_NAME    = EARTH
REF_FRAME      = TEME
TIME_SYSTEM    = UTC
MEAN_ELEMENT_THEORY = SGP/SGP4

EPOCH          = 2026-02-08T04:00:01.999584
MEAN_MOTION    = 15.55752498
ECCENTRICITY   = .0001292
INCLINATION    = 42.9999
RA_OF_ASC_NODE = 12.9813
ARG_OF_PERICENTER = 275.2371
MEAN_ANOMALY   = 141.5001

EPHEMERIS_TYPE = 0
CLASSIFICATION_TYPE = U
NORAD_CAT_ID   = 67462
ELEMENT_SET_NO = 999
REV_AT_EPOCH   = 507
BSTAR          = -.3297E-1
MEAN_MOTION_DOT = -.2078837E-1
MEAN_MOTION_DDOT = 0

CCSDS_OMM_VERS = 2.0
CREATION_DATE  = 
ORIGINATOR     = 

OBJECT_NAME    = STARLINK-36505
OBJECT_ID      = 2026-008U
CENTER_NAME    = EARTH
REF_FRAME      = TEME
TIME_SYSTEM    = UTC
MEAN_ELEMENT_THEORY = SGP/SGP4

EPOCH          = 2026-02-08T04:00:01.999584
MEAN_MOTION    = 15.53574016
ECCENTRICITY   = .000136
INCLINATION    = 43.0000
RA_OF_ASC_NODE = 13.0630
ARG_OF_PERICENTER = 254.8263
MEAN_ANOMALY   = 129.2288

EPHEMERIS_TYPE = 0
CLASSIFICATION_TYPE = U
NORAD_CAT_ID   = 67463
ELEMENT_SET_NO = 999
REV_AT_EPOCH   = 505
BSTAR          = -.33599E-1
MEAN_MOTION_DOT = -.1967072E-1
MEAN_MOTION_DDOT = 0

CCSDS_OMM_VERS = 2.0
CREATION_DATE  = 
ORIGINATOR     = 

OBJECT_NAME    = STARLINK-36421
OBJECT_ID      = 2026-008V
CENTER_NAME    = EARTH
REF_FRAME      = TEME
TIME_SYSTEM    = UTC
MEAN_ELEMENT_THEORY = SGP/SGP4

EPOCH          = 2026-02-08T04:00:01.999584
MEAN_MOTION    = 15.50460623
ECCENTRICITY   = .0001152
INCLINATION    = 43.0002
RA_OF_ASC_NODE = 13.4418
ARG_OF_PERICENTER = 259.2931
MEAN_ANOMALY   = 330.7896

EPHEMERIS_TYPE = 0
CLASSIFICATION_TYPE = U
NORAD_CAT_ID   = 67464
ELEMENT_SET_NO = 999
REV_AT_EPOCH   = 505
BSTAR          = .11465E-2
MEAN_MOTION_DOT = .6721E-3
MEAN_MOTION_DDOT = 0

CCSDS_OMM_VERS = 2.0
CREATION_DATE  = 
ORIGINATOR     = 

OBJECT_NAME    = STARLINK-36437
OBJECT_ID      = 2026-008W
CENTER_NAME    = EARTH
REF_FRAME      = TEME
TIME_SYSTEM    = UTC
MEAN_ELEMENT_THEORY = SGP/SGP4

EPOCH          = 2026-02-08T04:00:01.999584
MEAN_MOTION    = 15.54005103
ECCENTRICITY   = .0001281
INCLINATION    = 43.0003
RA_OF_ASC_NODE = 13.0361
ARG_OF_PERICENTER = 264.5373
MEAN_ANOMALY   = 129.9331

EPHEMERIS_TYPE = 0
CLASSIFICATION_TYPE = U
NORAD_CAT_ID   = 67465
ELEMENT_SET_NO = 999
REV_AT_EPOCH   = 505
BSTAR          = -.34886E-1
MEAN_MOTION_DOT = -.2063338E-1
MEAN_MOTION_DDOT = 0

