STARLINK-36517          
1 67454U 26008K   26039.16668981 -.00077497  00000+0 -13276-2 0  9993
2 67454  43.0000  13.6253 0001098 277.1571 238.4543 15.50592564  5076
STARLINK-36516          
1 67455U 26008L   26039.16668981 -.00032061  00000+0 -54374-3 0  9997
2 67455  43.0000  13.4878 0001374 274.5214 297.1074 15.50536365  5056
STARLINK-36493          
1 67456U 26008M   26039.16668981 -.00079627  00000+0 -13646-2 0  9993
2 67456  43.0002  13.4562 0001189 267.8729 316.5931 15.50594034  5054
STARLINK-36529          
1 67457U 26008N   26039.16668981 -.00502270  00000+0 -90242-2 0  9996
2 67457  43.0000  13.1986 0000765 227.1433 101.8188 15.50869333  5056
STARLINK-36528          
1 67458U 26008P   26039.16668981 -.02091202  00000+0 -30643-1 0  9995
2 67458  42.9997  12.9253 0001257 276.1512 163.7134 15.57870150  5079
STARLINK-36546          
1 67459U 26008Q   26039.16668981 -.00583463  00000+0 -10572-1 0  9998
2 67459  43.0002  13.1815 0000705 274.9944  60.7567 15.50922677  5057
STARLINK-36523          
1 67460U 26008R   26039.16668981 -.01741099  00000+0 -31772-1 0  9997
2 67460  43.0003  13.1474 0001341 265.5971  83.7824 15.51894893  5076
STARLINK-36522          
1 67461U 26008S   26039.16668981 -.00044975  00000+0 -76573-3 0  9996
2 67461  43.0002  13.4495 0001437 271.7927 314.9052 15.50559707  5059
STARLINK-36504          
1 67462U 26008T   26039.16668981 -.02078837  00000+0 -32970-1 0  9994
2 67462  42.9999  12.9813 0001292 275.2371 141.5001 15.55752498  5079
STARLINK-36505          
1 67463U 26008U   26039.16668981 -.01967072  00000+0 -33599-1 0  9990
2 67463  43.0000  13.0630 0001360 254.8263 129.2288 15.53574016  5057
STARLINK-36421          
1 67464U 26008V   26039.16668981  .00067210  00000+0  11465-2 0  9992
2 67464  43.0002  13.4418 0001152 259.2931 330.7896 15.50460623  5057
STARLINK-36437          
1 67465U 26008W   26039.16668981 -.02063338  00000+0 -34886-1 0  9995
2 67465  43.0003  13.0361 0001281 264.5373 129.9331 15.54005103  5058
